TDRS 3                  
1 19548U 88091B   26176.80053846 -.00000297  00000+0  00000+0 0  9996
2 19548  12.5949 340.9469 0037791 356.8738 175.4758  1.00271031125472
FLTSATCOM 8 (USA 46)    
1 20253U 89077A   26176.83513049 -.00000366  00000+0  00000+0 0  9992
2 20253  12.4190 351.1111 0003965  59.4841 289.7980  1.00273024260648
SKYNET 4C               
1 20776U 90079A   26162.20198486  .00000132  00000+0  00000+0 0  9996
2 20776  13.3424 349.8525 0002400  96.2313 279.5534  1.00274127130831
TDRS 5                  
1 21639U 91054B   26176.62461491  .00000084  00000+0  00000+0 0  9995
2 21639  14.0699 353.7180 0005862 271.5407  65.7992  1.00278785127798
TDRS 6                  
1 22314U 93003B   26176.37695958 -.00000297  00000+0  00000+0 0  9998
2 22314  14.1829 356.9974 0008498 179.5277 186.8095  1.00268372122493
UFO 2 (USA 95)          
1 22787U 93056A   26176.67312080  .00000125  00000+0  00000+0 0  9994
2 22787  11.8974   3.5074 0004569   8.8445 172.4026  1.00272701118631
USA 99 (MILSTAR-1 1)    
1 22988U 94009A   26175.94700000 -.00000227  00000+0  00000+0 0  9992
2 22988  17.6385  27.6261 0000587 207.4672 340.6467  0.98724102 33024
UFO 4 (USA 108)         
1 23467U 95003A   26176.80530961 -.00000020  00000+0  00000+0 0  9994
2 23467   9.6837  13.1553 0002998  78.5129 284.3772  1.00273867115043
TDRS 7                  
1 23613U 95035B   26176.47128406 -.00000240  00000+0  00000+0 0  9996
2 23613  13.3737 348.1324 0011835  81.8947 102.2204  1.00279093113334
USA 115 (MILSTAR-1 2)   
1 23712U 95060A   26176.59495968 -.00000208  00000+0  00000+0 0  9991
2 23712  14.0757   3.6873 0002060 133.0338 259.7558  1.00364291 32975
INMARSAT 3-F1           
1 23839U 96020A   26176.59956625 -.00000063  00000+0  00000+0 0  9999
2 23839  10.6178  46.5566 0003830  64.6590 274.2973  0.99977993110330
INMARSAT 3-F2           
1 24307U 96053A   26176.55291066 -.00000311  00000+0  00000+0 0  9999
2 24307   9.8751  53.8509 0006465  37.8190 162.3111  1.00000666109001
INMARSAT 3-F3           
1 24674U 96070A   26176.81681795  .00000129  00000+0  00000+0 0  9992
2 24674  10.3362  49.5703 0003097  41.2561 150.7588  0.99986568107996
USA 134                 
1 25019U 97065A   26176.80838847 -.00000063  00000+0  00000+0 0  9990
2 25019  12.7943  21.6593 0003110 346.5305  84.3780  1.00269916 33046
INMARSAT 3-F5           
1 25153U 98006B   26176.08586431 -.00000290  00000+0  00000+0 0  9996
2 25153   9.7108  53.1828 0004325  34.7192 162.2648  1.00273531103971
ABS-6                   
1 25924U 99053A   26176.82197531 -.00000109  00000+0  00000+0 0  9995
2 25924   0.0285 289.7924 0003647 170.4978 268.5944  1.00269817 97925
UFO 10 (USA 146)        
1 25967U 99063A   26176.37779696 -.00000188  00000+0  00000+0 0  9998
2 25967   9.8400  27.1683 0001535  68.4989 290.8662  1.00269429 97425
ASIASTAR                
1 26107U 00016A   26176.59836588 -.00000332  00000+0  00000+0 0  9994
2 26107   9.1490  58.0648 0004615  31.8675 144.2306  1.00273250 96003
USA 149 (DSP 20)        
1 26356U 00024A   26176.30305715  .00000093  00000+0  00000+0 0  9994
2 26356  13.1765  11.7961 0001722 324.4309 241.0629  1.00279241 32992
TDRS 8                  
1 26388U 00034A   26175.74766148 -.00000198  00000+0  00000+0 0  9995
2 26388  12.6950  31.2568 0004871  23.2402 212.2671  1.00276270 95257
NSS-11                  
1 26554U 00059A   26176.79975471  .00000034  00000+0  00000+0 0  9992
2 26554   2.1488  81.2976 0003099   5.9314 290.6070  1.00272429 41379
USA 153                 
1 26575U 00065A   26175.63348895 -.00000327  00000+0  00000+0 0  9994
2 26575  11.6373  35.3608 0003089  48.9917 190.9042  1.00268508 33002
AMC-6                   
1 26580U 00067A   26176.64080491  .00000098  00000+0  00000+0 0  9993
2 26580   0.1740  83.4238 0003893  20.3557 265.6325  1.00272209 93978
USA 157 (MILSTAR-2 2)   
1 26715U 01009A   26176.61752428  .00000109  00000+0  00000+0 0  9996
2 26715  11.5519  19.7136 0039360 178.2702 148.1165  1.00266739 33028
INTELSAT 902 (IS-902)   
1 26900U 01039A   26176.51502705 -.00000279  00000+0  00000+0 0  9994
2 26900   6.1373  71.6819 0004225  22.8132 314.4640  1.00271919 90777
USA 164 (MILSTAR-2 3)   
1 27168U 02001A   26176.22961412  .00000097  00000+0  00000+0 0  9990
2 27168  11.1892  21.8601 0099755   8.5989 344.5087  1.00270169 33036
INTELSAT 904 (IS-904)   
1 27380U 02007A   26176.57569770 -.00000221  00000+0  00000+0 0  9991
2 27380   6.9409  69.0858 0006538  10.0558  10.3274  1.00273321 51852
DIRECTV 5 (TEMPO 1)     
1 27426U 02023A   26176.78437416 -.00000051  00000+0  00000+0 0  9995
2 27426   4.8997  75.2077 0003506  26.5739 344.4102  1.00272965 88213
INTELSAT 905 (IS-905)   
1 27438U 02027A   26176.78303544  .00000098  00000+0  00000+0 0  9996
2 27438   6.7750  69.6987 0004163  26.1372 322.7654  1.00272456 51441
GALAXY 3C (G-3C)        
1 27445U 02030A   26176.81555943 -.00000146  00000+0  00000+0 0  9999
2 27445   3.7549  77.8682 0001949  25.4399   9.4019  1.00272558 46581
INTELSAT 906 (IS-906)   
1 27513U 02041A   26176.82282375  .00000018  00000+0  00000+0 0  9991
2 27513   5.8238  72.8153 0004231   6.4653 195.0332  1.00271956 87117
